STARLINK-5125           
1 53994U 22125AG  25347.97104402 -.00000017  00000+0  17016-4 0  9997
2 53994  53.2167 238.8062 0001438  87.4436 272.6721 15.08834620176528
STARLINK-5097           
1 53995U 22125AH  25347.97841125  .00010197  00000+0  65766-3 0  9991
2 53995  53.2155 238.8548 0001512  77.7634 282.3528 15.08851494176510
STARLINK-5131           
1 53996U 22125AJ  25347.96735084  .00001027  00000+0  82610-4 0  9997
2 53996  53.2168 238.7838 0001539  90.4395 269.6773 15.08849139176525
STARLINK-5130           
1 53997U 22125AK  25347.93520826  .00000994  00000+0  80558-4 0  9992
2 53997  53.2177 229.3160 0001521  71.4402 288.6755 15.08839419176654
STARLINK-5128           
1 53998U 22125AL  25347.95999160  .00008899  00000+0  57603-3 0  9992
2 53998  53.2150 238.7374 0001053  92.0878 268.0234 15.08868336176523
STARLINK-5079           
1 53999U 22125AM  25347.97472137  .00001190  00000+0  92855-4 0  9991
2 53999  53.2179 238.8294 0001801  74.7316 285.3875 15.08844713176528
STARLINK-5088           
1 54000U 22125AN  25347.93151768  .00000219  00000+0  31831-4 0  9993
2 54000  53.2164 229.2920 0001153  81.7944 278.3179 15.08841736176656
STARLINK-5109           
1 54002U 22125AQ  25347.95354810 -.00000948  00000+0 -41480-4 0  9992
2 54002  53.2178 228.7408 0001943  95.9693 264.1521 15.08846899176663
STARLINK-5114           
1 54003U 22125AR  25347.96367284  .00003924  00000+0  26448-3 0  9994
2 54003  53.2151 238.7595 0001420  90.0404 270.0751 15.08839543176523
STARLINK-5129           
1 54004U 22125AS  25347.95261701  .00000736  00000+0  64337-4 0  9999
2 54004  53.2178 238.6922 0001519  92.2341 267.8825 15.08838878176525
STARLINK-5135           
1 54005U 22125AT  25347.95631827  .00000600  00000+0  55802-4 0  9997
2 54005  53.2182 238.7173 0001618  82.0713 278.0462 15.08832333176521
STARLINK-5096           
1 54006U 22125AU  25347.94156391  .00000113  00000+0  25213-4 0  9997
2 54006  53.2177 238.6327 0001324 107.6271 252.4866 15.08840419176510
STARLINK-5132           
1 54007U 22125AV  25347.94892816  .00001563  00000+0  11624-3 0  9997
2 54007  53.2189 238.6757 0001499  94.7095 265.4068 15.08844812176524
STARLINK-5145           
1 54008U 22125AW  25347.94617271 -.00000528  00000+0 -15081-4 0  9992
2 54008  53.2167 228.6810 0001414  89.4284 270.6870 15.08838687176665
STARLINK-5099           
1 54009U 22125AX  25347.94524957  .00000628  00000+0  57523-4 0  9997
2 54009  53.2180 238.6491 0001252  86.2525 273.8611 15.08837484176527
STARLINK-5127           
1 54010U 22125AY  25347.93880535  .00000663  00000+0  59748-4 0  9995
2 54010  53.2177 228.6441 0001417  93.2086 266.9069 15.08835238176662
STARLINK-5124           
1 54011U 22125AZ  25347.86159576  .00001970  00000+0  14179-3 0  9992
2 54011  53.2167 229.5689 0000989  88.4558 271.6548 15.08839763176649
STARLINK-5126           
1 54012U 22125BA  25347.96827827  .00000649  00000+0  58862-4 0  9995
2 54012  53.2167 228.8140 0001337  88.5810 271.5336 15.08839687176665
STARLINK-5098           
1 54013U 22125BB  25347.97565125 -.00002178  00000+0 -11881-3 0  9997
2 54013  53.2157 228.8580 0001378  85.9225 274.1925 15.08830019176662
STARLINK-5055           
1 54015U 22125BD  25347.97196831 -.00000463  00000+0 -11018-4 0  9991
2 54015  53.2176 228.8335 0001489  88.1090 272.0073 15.08833942176660
STARLINK-5195           
1 54051U 22136A   25347.79720072  .00001342  00000+0  10240-3 0  9993
2 54051  53.2193   9.9527 0001406  89.0481 271.0672 15.08844195173879
STARLINK-5189           
1 54052U 22136B   25347.28567979 -.00007157  00000+0 -43274-3 0  9998
2 54052  53.2192 331.8201 0001278  95.9501 264.1637 15.08783445174360
STARLINK-5176           
1 54053U 22136C   25347.79351169  .00001768  00000+0  12911-3 0  9991
2 54053  53.2192   9.9305 0001459  81.5667 278.5491 15.08846631173873
STARLINK-5163           
1 54054U 22136D   25347.78614680  .00001897  00000+0  13722-3 0  9995
2 54054  53.2186   9.8808 0001394  82.2009 277.9141 15.08845151173871
STARLINK-5158           
1 54055U 22136E   25347.45863652 -.00000010  00000+0  17458-4 0  9993
2 54055  53.2191  11.3929 0001385  90.0094 270.1057 15.08847264173824
STARLINK-5226           
1 54056U 22136F   25347.46960153 -.00000171  00000+0  73280-5 0  9993
2 54056  53.2191  10.7632 0001469 104.5149 255.6006 15.08845460173833
STARLINK-5167           
1 54058U 22136H   25347.77509964 -.00000101  00000+0  11720-4 0  9991
2 54058  53.2198   9.8167 0001295  90.5726 269.5415 15.08841232173871
STARLINK-5173           
1 54059U 22136J   25347.38134042 -.00001108  00000+0 -51533-4 0  9995
2 54059  53.2181  11.6225 0001145  92.7217 267.3906 15.08835218173815
STARLINK-5169           
1 54060U 22136K   25347.27365070  .00005556  00000+0  36672-3 0  9997
2 54060  53.2183 341.7142 0001446  90.4036 269.7122 15.08855810174224
STARLINK-5209           
1 54061U 22136L   25348.00091208 -.00000784  00000+0 -31202-4 0  9994
2 54061  53.2190 333.4065 0001541  98.9187 261.1979 15.08833635174408
STARLINK-5170           
1 54062U 22136M   25347.77142798  .00011859  00000+0  76179-3 0  9993
2 54062  53.2180   9.7927 0001194  93.8395 266.2733 15.08848375173878
STARLINK-5225           
1 54063U 22136N   25348.00004630  .00104290  00000+0  43704-2 0  9992
2 54063  53.2165   8.2025 0001484  65.4318  29.1767 15.22692549  5601
STARLINK-5172           
1 54064U 22136P   25347.91725745  .00000655  00000+0  59266-4 0  9991
2 54064  53.2181 324.3490 0001344  91.4264 268.6882 15.08837674174522
STARLINK-5187           
1 54065U 22136Q   25347.76035654  .00000466  00000+0  47349-4 0  9997
2 54065  53.2196   9.7249 0001332  88.7069 271.4076 15.08839244173873
STARLINK-5151           
1 54066U 22136R   25347.36659911  .00000733  00000+0  64119-4 0  9993
2 54066  53.2192  11.5398 0001510  85.5412 274.5753 15.08849395173819
STARLINK-5174           
1 54067U 22136S   25347.35554510  .00002838  00000+0  19631-3 0  9998
2 54067  53.2177  11.4622 0001265  89.3110 270.8027 15.08841730173814
STARLINK-5222           
1 54068U 22136T   25347.75667339  .00000102  00000+0  24503-4 0  9994
2 54068  53.2178   9.7011 0001289  87.0954 273.0186 15.08833403173870
STARLINK-5181           
1 54070U 22136V   25347.48066484  .00009034  00000+0  58512-3 0  9990
2 54070  53.2180  10.8239 0001451  93.6368 266.4790 15.08830805173830
STARLINK-5168           
1 54071U 22136W   25347.34443858  .00006652  00000+0  43505-3 0  9999
2 54071  53.2184  11.3955 0001564  95.3569 264.7601 15.08890643173819
STARLINK-5146           
1 54073U 22136Y   25347.74055436 -.00000487  00000+0 -12527-4 0  9999
2 54073  53.2197   4.6211 0001216  90.1371 269.9761 15.08833149173949
STARLINK-5192           
1 54074U 22136Z   25347.80448317 -.00004362  00000+0 -25596-3 0  9996
2 54074  53.2193   9.2922 0000998  85.4103 274.7003 15.08867803173882
STARLINK-5212           
1 54075U 22136AA  25347.33942718  .00001530  00000+0  11422-3 0  9994
2 54075  53.2169   6.3781 0001559  88.0240 272.0931 15.08839351173880
STARLINK-5201           
1 54076U 22136AB  25347.79447966  .00000292  00000+0  36467-4 0  9991
2 54076  53.2180   9.9221 0001340  81.1386 278.9758 15.08832644173874
STARLINK-5171           
1 54077U 22136AC  25347.28714621  .00000254  00000+0  34020-4 0  9992
2 54077  53.2188 347.6307 0000991  67.2285 292.8812 15.08841662174141
STARLINK-5175           
1 54079U 22136AE  25347.33076096 -.00000930  00000+0 -40313-4 0  9992
2 54079  53.2193   2.0259 0001452  86.3546 273.7612 15.08842441173941
STARLINK-5160           
1 54080U 22136AF  25347.32477287  .00003710  00000+0  25115-3 0  9999
2 54080  53.2194   6.9924 0001360  90.1721 269.9427 15.08830496173872
STARLINK-5210           
1 54082U 22136AH  25347.32707197  .00000968  00000+0  78873-4 0  9999
2 54082  53.2183   2.0017 0001389  79.5986 280.5163 15.08843205173943
STARLINK-5178           
1 54083U 22136AJ  25347.77969831  .00000068  00000+0  22336-4 0  9998
2 54083  53.2181 359.8526 0001185  88.1015 272.0113 15.08843618174011
STARLINK-5183           
1 54084U 22136AK  25347.45586859  .00000621  00000+0  57110-4 0  9992
2 54084  53.2183   1.3823 0001448  91.9407 268.1751 15.08841683173969
STARLINK-5166           
1 54085U 22136AL  25347.77697931  .00000560  00000+0  53264-4 0  9990
2 54085  53.2176 359.8351 0001466  87.6977 272.4183 15.08836550174014
STARLINK-5211           
1 54086U 22136AM  25347.38181006  .00000503  00000+0  49684-4 0  9997
2 54086  53.2185 346.6754 0001281  82.8733 277.2405 15.08843854174169
STARLINK-5184           
1 54087U 22136AN  25347.73917060 -.00000107  00000+0  11343-4 0  9996
2 54087  53.2185 359.6083 0001274  90.0160 270.0979 15.08842264174011
STARLINK-5153           
1 54088U 22136AP  25347.31970434  .00000507  00000+0  49968-4 0  9992
2 54088  53.2190   1.9549 0001462  93.0249 267.0911 15.08841454173945
STARLINK-5143           
1 54089U 22136AQ  25347.76128289  .00000042  00000+0  20713-4 0  9996
2 54089  53.2196 359.7360 0001464  85.6436 274.4723 15.08833862174010
STARLINK-5177           
1 54090U 22136AR  25347.76496866 -.00000150  00000+0  86532-5 0  9990
2 54090  53.2175 359.7587 0001282  86.3424 273.7715 15.08832241174016
STARLINK-5221           
1 54091U 22136AS  25347.73548552 -.00000662  00000+0 -23494-4 0  9994
2 54091  53.2171 359.5815 0001194  89.2263 270.8866 15.08837074174014
STARLINK-5190           
1 54092U 22136AT  25347.96961852  .00061953  00000+0  89341-3 0  9992
2 54092  53.1827 231.6278 0005240  90.1517 270.0095 15.55422081175831
STARLINK-5213           
1 54093U 22136AU  25347.75022557 -.00001284  00000+0 -62587-4 0  9997
2 54093  53.2184 359.6689 0001222  93.1048 267.0084 15.08839220174012
STARLINK-5219           
1 54094U 22136AV  25348.00004630  .01443912  00000+0  18283-1 0  9997
2 54094  53.2214 355.1286 0001467  82.9714 152.4545 15.55911819  5758
